STARLINK-30552          
1 57999U 23153J   26199.60623968 -.00013009  00000+0 -46330-3 0  9993
2 57999  43.0030  48.1143 0001657 286.9053  73.1617 15.27629521154919
STARLINK-30545          
1 58000U 23153K   26198.95608092 -.00000549  00000+0 -10422-4 0  9994
2 58000  43.0016  50.9793 0001124 294.4106  65.6628 15.27583084154822
STARLINK-30535          
1 58001U 23153L   26198.95994226 -.00000995  00000+0 -26641-4 0  9997
2 58001  43.0024  51.0053 0001352 268.2148  91.8549 15.27572867154821
STARLINK-30540          
1 58002U 23153M   26198.97021120 -.00000257  00000+0  20307-6 0  9999
2 58002  43.0049  51.0661 0001465 258.4882 101.5805 15.27576089154728
STARLINK-30539          
1 58004U 23153P   26199.62150811  .00000306  00000+0  20668-4 0  9996
2 58004  43.0046  47.3715 0001363 265.8019  94.2677 15.27573683154919
STARLINK-30530          
1 58005U 23153Q   26199.62921497 -.00000604  00000+0 -12412-4 0  9994
2 58005  43.0062  47.4203 0001519 259.1150 100.9531 15.27579529154926
STARLINK-30526          
1 58006U 23153R   26199.55613397  .00019053  00000+0  61436-3 0  9999
2 58006  43.0044  20.8499 0007202 273.0444  86.9585 15.31808509155229
STARLINK-30527          
1 58007U 23153S   26199.03092919  .00000233  00000+0  17994-4 0  9995
2 58007  43.0021 182.2821 0001406 268.5710  91.4980 15.27577464157390
STARLINK-30522          
1 58008U 23153T   26199.59851633 -.00001611  00000+0 -49019-4 0  9999
2 58008  42.9947  48.0388 0000380 102.3030 257.7865 15.27588304154912
STARLINK-30486          
1 58009U 23153U   26198.64456242 -.00000145  00000+0  42605-5 0  9997
2 58009  43.0029  52.9273 0001916 242.9852 117.0804 15.27576892154675
STARLINK-30520          
1 58010U 23153V   26199.30872293  .00012419  00000+0  46066-3 0  9990
2 58010  43.0058  49.3025 0001312 245.9366 114.1348 15.27537489154778
STARLINK-30497          
1 58011U 23153W   26199.61637363  .00006270  00000+0  23745-3 0  9999
2 58011  43.0047  47.3191 0001714 261.9475  98.1183 15.27542118154924
STARLINK-30525          
1 58012U 23153X   26199.62794719 -.00001257  00000+0 -36158-4 0  9995
2 58012  43.0057  47.4004 0001326 260.1796  99.8906 15.27567612154923
THEOS-2 (T2V)           
1 58016U 23155A   26199.65021914  .00000330  00000+0  48528-4 0  9997
2 58016  97.8864 270.1568 0001428  98.3092 261.8282 14.81642635150082
FORMOSAT-7R (TRITON)    
1 58017U 23155B   26199.50937273  .00000796  00000+0  85768-4 0  9999
2 58017  97.8350 280.6839 0001367  49.6181 310.5156 14.91199417150897
ANSER FOLLOWER 2        
1 58018U 23155C   26199.51402885  .00018444  00000+0  32358-3 0  9992
2 58018  97.5526 290.0669 0002324 190.9980 169.1221 15.50604769153809
ANSER FOLLOWER 1        
1 58019U 23155D   26199.50574271  .00045248  00000+0  78087-3 0  9992
2 58019  97.5515 290.7000 0002835 198.6720 161.4428 15.50884248153804
NESS                    
1 58020U 23155E   26199.51631936  .00008776  00000+0  29460-3 0  9993
2 58020  97.5907 286.0138 0007129  95.8780 264.3274 15.31091300153288
CSC-2                   
1 58021U 23155F   26199.16436369  .00005257  00000+0  23111-3 0  9996
2 58021  97.5413 275.9201 0006405 123.9206 236.2640 15.22315600152894
CSC-1                   
1 58022U 23155G   26199.64014275  .00001245  00000+0  78361-4 0  9999
2 58022  97.5355 268.6437 0009304 127.5378 232.6698 15.10972300152482
PRETTY                  
1 58023U 23155H   26199.17455385  .00003060  00000+0  12858-3 0  9994
2 58023  97.5683 281.0636 0000125 101.8930 258.2321 15.24218893153076
MACSAT (FINCH 1)        
1 58024U 23155J   26199.60456236  .00002001  00000+0  93971-4 0  9999
2 58024  97.5773 281.7658 0001450   0.1430 359.9806 15.20806312153102
PVCC                    
1 58025U 23155K   26199.61701624  .00003065  00000+0  16176-3 0  9997
2 58025  97.5690 276.0779 0004761  44.0502 316.1109 15.16293056152747
STARLINK-30514          
1 58028U 23156A   26199.58335648 -.00070272  00000+0 -21433-2 0  9993
2 58028  53.1587 190.1643 0001459  83.2431 129.8029 15.33578667  5814
STARLINK-30518          
1 58029U 23156B   26199.35985740  .00000109  00000+0  15819-4 0  9996
2 58029  53.1588 191.3280 0001293  93.6824 266.4324 15.30190185156324
STARLINK-30549          
1 58030U 23156C   26199.38620696  .00000805  00000+0  39298-4 0  9997
2 58030  53.1594 191.3065 0001226  81.5900 278.5239 15.30197291156279
STARLINK-30556          
1 58031U 23156D   26199.39578104 -.00003065  00000+0 -79643-4 0  9996
2 58031  53.1584 199.0619 0001506  80.6412 279.4761 15.34390417156200
STARLINK-30561          
1 58032U 23156E   26199.24497161 -.00000108  00000+0  79597-5 0  9997
2 58032  53.1619 191.8504 0001663  67.8483 292.2696 15.34386226156306
STARLINK-30562          
1 58033U 23156F   26199.49437431  .00000060  00000+0  14148-4 0  9995
2 58033  53.1600 280.3188 0001062  92.0720 268.0402 15.30197291155062
STARLINK-30565          
1 58034U 23156G   26199.36893324  .00000221  00000+0  17696-4 0  9999
2 58034  53.1609 191.2066 0001486  90.4793 269.6380 15.34387620156322
