OBJECT_NAME,OBJECT_ID,EPOCH,MEAN_MOTION,ECCENTRICITY,INCLINATION,RA_OF_ASC_NODE,ARG_OF_PERICENTER,MEAN_ANOMALY,EPHEMERIS_TYPE,CLASSIFICATION_TYPE,NORAD_CAT_ID,ELEMENT_SET_NO,REV_AT_EPOCH,BSTAR,MEAN_MOTION_DOT,MEAN_MOTION_DDOT
STARLINK-30552,2023-153J,2026-07-18T14:32:59.108352,15.27629521,.00016573,43.0030,48.1143,286.9053,73.1617,0,U,57999,999,15491,-.46330209E-3,-.13009E-3,0
STARLINK-30545,2023-153K,2026-07-17T22:56:45.391488,15.27583084,.00011242,43.0016,50.9793,294.4106,65.6628,0,U,58000,999,15482,-.10421764E-4,-.549E-5,0
STARLINK-30535,2023-153L,2026-07-17T23:02:19.011264,15.27572867,.00013528,43.0024,51.0053,268.2148,91.8549,0,U,58001,999,15482,-.26641204E-4,-.995E-5,0
STARLINK-30540,2023-153M,2026-07-17T23:17:06.247680,15.27576089,.00014653,43.0049,51.0661,258.4882,101.5805,0,U,58002,999,15472,.203074E-6,-.257E-5,0
STARLINK-30539,2023-153P,2026-07-18T14:54:58.300704,15.27573683,.00013638,43.0046,47.3715,265.8019,94.2677,0,U,58004,999,15491,.20667554E-4,.306E-5,0
STARLINK-30530,2023-153Q,2026-07-18T15:06:04.173408,15.27579529,.00015197,43.0062,47.4203,259.1150,100.9531,0,U,58005,999,15492,-.1241178E-4,-.604E-5,0
STARLINK-30526,2023-153R,2026-07-18T13:20:49.975008,15.31808509,.00072026,43.0044,20.8499,273.0444,86.9585,0,U,58006,999,15522,.61436101E-3,.19053E-3,0
STARLINK-30527,2023-153S,2026-07-18T00:44:32.282016,15.27577464,.00014066,43.0021,182.2821,268.5710,91.4980,0,U,58007,999,15739,.17993958E-4,.233E-5,0
STARLINK-30522,2023-153T,2026-07-18T14:21:51.810912,15.27588304,.00003805,42.9947,48.0388,102.3030,257.7865,0,U,58008,999,15491,-.49018626E-4,-.1611E-4,0
STARLINK-30486,2023-153U,2026-07-17T15:28:10.193088,15.27576892,.0001916,43.0029,52.9273,242.9852,117.0804,0,U,58009,999,15467,.42605E-5,-.145E-5,0
STARLINK-30520,2023-153V,2026-07-18T07:24:33.661152,15.27537489,.0001312,43.0058,49.3025,245.9366,114.1348,0,U,58010,999,15477,.46065826E-3,.12419E-3,0
STARLINK-30497,2023-153W,2026-07-18T14:47:34.681632,15.27542118,.00017141,43.0047,47.3191,261.9475,98.1183,0,U,58011,999,15492,.23745133E-3,.627E-4,0
STARLINK-30525,2023-153X,2026-07-18T15:04:14.637216,15.27567612,.00013267,43.0057,47.4004,260.1796,99.8906,0,U,58012,999,15492,-.3615786E-4,-.1257E-4,0
THEOS-2 (T2V),2023-155A,2026-07-18T15:36:18.933696,14.81642635,.00014288,97.8864,270.1568,98.3092,261.8282,0,U,58016,999,15008,.48527578E-4,.33E-5,0
FORMOSAT-7R (TRITON),2023-155B,2026-07-18T12:13:29.803872,14.91199417,.00013677,97.8350,280.6839,49.6181,310.5156,0,U,58017,999,15089,.85768434E-4,.796E-5,0
ANSER FOLLOWER 2,2023-155C,2026-07-18T12:20:12.092640,15.50604769,.00023244,97.5526,290.0669,190.9980,169.1221,0,U,58018,999,15380,.32358162E-3,.18444E-3,0
ANSER FOLLOWER 1,2023-155D,2026-07-18T12:08:16.170144,15.50884248,.00028351,97.5515,290.7000,198.6720,161.4428,0,U,58019,999,15380,.78086927E-3,.45248E-3,0
NESS,2023-155E,2026-07-18T12:23:29.992704,15.31091300,.00071295,97.5907,286.0138,95.8780,264.3274,0,U,58020,999,15328,.29459543E-3,.8776E-4,0
CSC-2,2023-155F,2026-07-18T03:56:41.022816,15.22315600,.00064051,97.5413,275.9201,123.9206,236.2640,0,U,58021,999,15289,.23111173E-3,.5257E-4,0
CSC-1,2023-155G,2026-07-18T15:21:48.333600,15.10972300,.00093046,97.5355,268.6437,127.5378,232.6698,0,U,58022,999,15248,.78361082E-4,.1245E-4,0
PRETTY,2023-155H,2026-07-18T04:11:21.452640,15.24218893,.00001251,97.5683,281.0636,101.8930,258.2321,0,U,58023,999,15307,.12857644E-3,.306E-4,0
MACSAT (FINCH 1),2023-155J,2026-07-18T14:30:34.187904,15.20806312,.00014508,97.5773,281.7658,0.1430,359.9806,0,U,58024,999,15310,.93971406E-4,.2001E-4,0
PVCC,2023-155K,2026-07-18T14:48:30.203136,15.16293056,.00047611,97.5690,276.0779,44.0502,316.1109,0,U,58025,999,15274,.16176092E-3,.3065E-4,0
STARLINK-30514,2023-156A,2026-07-18T14:00:01.999872,15.33578667,.00014591,53.1587,190.1643,83.2431,129.8029,0,U,58028,999,581,-.21432697E-2,-.70272E-3,0
STARLINK-30518,2023-156B,2026-07-18T08:38:11.679360,15.30190185,.0001293,53.1588,191.3280,93.6824,266.4324,0,U,58029,999,15632,.15819133E-4,.109E-5,0
STARLINK-30549,2023-156C,2026-07-18T09:16:08.281344,15.30197291,.00012263,53.1594,191.3065,81.5900,278.5239,0,U,58030,999,15627,.39298282E-4,.805E-5,0
STARLINK-30556,2023-156D,2026-07-18T09:29:55.481856,15.34390417,.00015061,53.1584,199.0619,80.6412,279.4761,0,U,58031,999,15620,-.79642773E-4,-.3065E-4,0
STARLINK-30561,2023-156E,2026-07-18T05:52:45.547104,15.34386226,.00016636,53.1619,191.8504,67.8483,292.2696,0,U,58032,999,15630,.795974E-5,-.108E-5,0
STARLINK-30562,2023-156F,2026-07-18T11:51:53.940384,15.30197291,.00010624,53.1600,280.3188,92.0720,268.0402,0,U,58033,999,15506,.141477E-4,.6E-6,0
STARLINK-30565,2023-156G,2026-07-18T08:51:15.831936,15.34387620,.00014869,53.1609,191.2066,90.4793,269.6380,0,U,58034,999,15632,.17695639E-4,.221E-5,0
